["485906013607170048","SKVP 062200Z 15006KT 9999 FEW015 SCT200 35/20 A2977"]
